[{"OBJECT_NAME":"FORMOSAT 7-6","OBJECT_ID":"2019-036Q","EPOCH":"2026-03-09T22:15:37.988928","MEAN_MOTION":14.96031608,"ECCENTRICITY":0.00012688,"INCLINATION":23.9972,"RA_OF_ASC_NODE":278.5868,"ARG_OF_PERICENTER":36.7738,"MEAN_ANOMALY":323.285,"EPHEMERIS_TYPE":0,"CLASSIFICATION_TYPE":"U","NORAD_CAT_ID":44353,"ELEMENT_SET_NO":999,"REV_AT_EPOCH":36693,"BSTAR":0.0003091038,"MEAN_MOTION_DOT":3.857e-5,"MEAN_MOTION_DDOT":0},{"OBJECT_NAME":"STARLINK-34535","OBJECT_ID":"2025-142C","EPOCH":"2026-03-09T22:20:52.561824","MEAN_MOTION":14.98315048,"ECCENTRICITY":0.00027672,"INCLINATION":70.0028,"RA_OF_ASC_NODE":313.9569,"ARG_OF_PERICENTER":237.0981,"MEAN_ANOMALY":122.9912,"EPHEMERIS_TYPE":0,"CLASSIFICATION_TYPE":"U","NORAD_CAT_ID":64698,"ELEMENT_SET_NO":999,"REV_AT_EPOCH":3950,"BSTAR":0.00014002144,"MEAN_MOTION_DOT":1.578e-5,"MEAN_MOTION_DDOT":0}]
